start=new Date('2023-02-13T00:00:00.000Z').valueOf();
sats=[{"COUNTRY_CODE":"US","OBJECT_NAME":"STARLINK-4439","FILE":"3787692","TLE_LINE2":"2 53498  97.6518 166.4554 0000970 111.4296 248.7031 15.01274285 27782","APOAPSIS":"563.641","SEMIMAJOR_AXIS":"6941.103","ECCENTRICITY":"0.00009700","RA_OF_ASC_NODE":"166.4554","MEAN_ELEMENT_THEORY":"SGP4","SITE":"AFWTR","MEAN_ANOMALY":"248.7031","RCS_SIZE":"MEDIUM","OBJECT_ID":"2022-099AK","PERIOD":"95.919","REV_AT_EPOCH":"2778","BSTAR":"0.00024907000000","ELEMENT_SET_NO":"999","CENTER_NAME":"EARTH","LAUNCH_DATE":"2022-08-12","NORAD_CAT_ID":"53498","MEAN_MOTION_DOT":"0.00003143","REF_FRAME":"TEME","DECAY_DATE":null,"OBJECT_TYPE":"PAYLOAD","TLE_LINE1":"1 53498U 22099AK  23043.59034191  .00003143  00000-0  24907-3 0  9991","EPOCH":"2023-02-12T14:10:05.541024","MEAN_MOTION_DDOT":"0.0000000000000","INCLINATION":"97.6518","GP_ID":"225238791","TIME_SYSTEM":"UTC","PERIAPSIS":"562.295","MEAN_MOTION":"15.01274285","ARG_OF_PERICENTER":"111.4296","EPHEMERIS_TYPE":"0","CLASSIFICATION_TYPE":"U"},{"PERIOD":"95.919","BSTAR":"0.00010777000000","REV_AT_EPOCH":"2778","ELEMENT_SET_NO":"999","CENTER_NAME":"EARTH","LAUNCH_DATE":"2022-08-12","MEAN_MOTION_DOT":"0.00001326","NORAD_CAT_ID":"53499","OBJECT_TYPE":"PAYLOAD","REF_FRAME":"TEME","DECAY_DATE":null,"TLE_LINE1":"1 53499U 22099AL  23043.58318486  .00001326  00000-0  10777-3 0  9994","EPOCH":"2023-02-12T13:59:47.171904","MEAN_MOTION_DDOT":"0.0000000000000","INCLINATION":"97.6514","TIME_SYSTEM":"UTC","GP_ID":"225237554","MEAN_MOTION":"15.01264218","PERIAPSIS":"562.681","CLASSIFICATION_TYPE":"U","EPHEMERIS_TYPE":"0","ARG_OF_PERICENTER":"244.7956","FILE":"3787692","COUNTRY_CODE":"US","OBJECT_NAME":"STARLINK-4454","APOAPSIS":"563.317","TLE_LINE2":"2 53499  97.6514 166.4423 0000458 244.7956 115.3221 15.01264218 27783","SEMIMAJOR_AXIS":"6941.134","ECCENTRICITY":"0.00004580","RA_OF_ASC_NODE":"166.4423","MEAN_ELEMENT_THEORY":"SGP4","SITE":"AFWTR","MEAN_ANOMALY":"115.3221","RCS_SIZE":"LARGE","OBJECT_ID":"2022-099AL"},{"MEAN_ANOMALY":"164.1913","SITE":"AFWTR","MEAN_ELEMENT_THEORY":"SGP4","OBJECT_ID":"2022-099AM","RCS_SIZE":"LARGE","SEMIMAJOR_AXIS":"6941.141","TLE_LINE2":"2 53500  97.6503 166.4507 0000587 195.9293 164.1913 15.01261886 27789","APOAPSIS":"563.413","OBJECT_NAME":"STARLINK-4455","COUNTRY_CODE":"US","FILE":"3787692","RA_OF_ASC_NODE":"166.4507","ECCENTRICITY":"0.00005870","MEAN_MOTION_DDOT":"0.0000000000000","EPOCH":"2023-02-12T14:04:45.763392","TLE_LINE1":"1 53500U 22099AM  23043.58664078  .00028151  00000-0  21875-2 0  9993","ARG_OF_PERICENTER":"195.9293","EPHEMERIS_TYPE":"0","CLASSIFICATION_TYPE":"U","PERIAPSIS":"562.599","MEAN_MOTION":"15.01261886","TIME_SYSTEM":"UTC","GP_ID":"225237802","INCLINATION":"97.6503","ELEMENT_SET_NO":"999","REV_AT_EPOCH":"2778","BSTAR":"0.00218750000000","PERIOD":"95.919","REF_FRAME":"TEME","DECAY_DATE":null,"OBJECT_TYPE":"PAYLOAD","MEAN_MOTION_DOT":"0.00028151","NORAD_CAT_ID":"53500","LAUNCH_DATE":"2022-08-12","CENTER_NAME":"EARTH"},{"SITE":"AFWTR","MEAN_ANOMALY":"103.4389","MEAN_ELEMENT_THEORY":"SGP4","OBJECT_ID":"2022-099AN","RCS_SIZE":"LARGE","SEMIMAJOR_AXIS":"6941.094","COUNTRY_CODE":"US","OBJECT_NAME":"STARLINK-4434","FILE":"3787692","TLE_LINE2":"2 53501  97.6524 166.4383 0001915 256.6621 103.4389 15.01277131 27784","APOAPSIS":"564.288","ECCENTRICITY":"0.00019150","RA_OF_ASC_NODE":"166.4383","EPOCH":"2023-02-12T13:54:05.122944","MEAN_MOTION_DDOT":"0.0000000000000","TLE_LINE1":"1 53501U 22099AN  23043.57922596  .00001744  00000-0  14025-3 0  9994","PERIAPSIS":"561.630","MEAN_MOTION":"15.01277131","ARG_OF_PERICENTER":"256.6621","EPHEMERIS_TYPE":"0","CLASSIFICATION_TYPE":"U","INCLINATION":"97.6524","TIME_SYSTEM":"UTC","GP_ID":"225239051","ELEMENT_SET_NO":"999","PERIOD":"95.918","REV_AT_EPOCH":"2778","BSTAR":"0.00014025000000","DECAY_DATE":null,"REF_FRAME":"TEME","OBJECT_TYPE":"PAYLOAD","LAUNCH_DATE":"2022-08-12","CENTER_NAME":"EARTH","NORAD_CAT_ID":"53501","MEAN_MOTION_DOT":"0.00001744"},{"OBJECT_ID":"2022-099AP","RCS_SIZE":"LARGE","MEAN_ANOMALY":"113.3584","SITE":"AFWTR","MEAN_ELEMENT_THEORY":"SGP4","ECCENTRICITY":"0.00012540","RA_OF_ASC_NODE":"166.4419","SEMIMAJOR_AXIS":"6941.098","COUNTRY_CODE":"US","OBJECT_NAME":"STARLINK-4435","FILE":"3787692","TLE_LINE2":"2 53502  97.6540 166.4419 0001254 246.7508 113.3584 15.01275738 27781","APOAPSIS":"563.834","PERIAPSIS":"562.093","MEAN_MOTION":"15.01275738","EPHEMERIS_TYPE":"0","ARG_OF_PERICENTER":"246.7508","CLASSIFICATION_TYPE":"U","INCLINATION":"97.6540","TIME_SYSTEM":"UTC","GP_ID":"225239291","EPOCH":"2023-02-12T13:59:25.336896","MEAN_MOTION_DDOT":"0.0000000000000","TLE_LINE1":"1 53502U 22099AP  23043.58293214  .00003348  00000-0  26506-3 0  9993","REF_FRAME":"TEME","DECAY_DATE":null,"OBJECT_TYPE":"PAYLOAD","LAUNCH_DATE":"2022-08-12","CENTER_NAME":"EARTH","MEAN_MOTION_DOT":"0.00003348","NORAD_CAT_ID":"53502","ELEMENT_SET_NO":"999","PERIOD":"95.918","REV_AT_EPOCH":"2778","BSTAR":"0.00026506000000"},{"OBJECT_TYPE":"PAYLOAD","DECAY_DATE":null,"REF_FRAME":"TEME","LAUNCH_DATE":"2022-08-12","CENTER_NAME":"EARTH","MEAN_MOTION_DOT":"0.00002736","NORAD_CAT_ID":"53503","ELEMENT_SET_NO":"999","PERIOD":"95.919","BSTAR":"0.00021747000000","REV_AT_EPOCH":"2778","MEAN_MOTION":"15.01265170","PERIAPSIS":"561.953","CLASSIFICATION_TYPE":"U","EPHEMERIS_TYPE":"0","ARG_OF_PERICENTER":"239.2173","INCLINATION":"97.6549","TIME_SYSTEM":"UTC","GP_ID":"225238054","EPOCH":"2023-02-12T13:51:25.819488","MEAN_MOTION_DDOT":"0.0000000000000","TLE_LINE1":"1 53503U 22099AQ  23043.57738217  .00002736  00000-0  21747-3 0  9992","ECCENTRICITY":"0.00015020","RA_OF_ASC_NODE":"166.4360","SEMIMAJOR_AXIS":"6941.131","FILE":"3787692","COUNTRY_CODE":"US","OBJECT_NAME":"STARLINK-4461","APOAPSIS":"564.038","TLE_LINE2":"2 53503  97.6549 166.4360 0001502 239.2173 120.8903 15.01265170 27784","OBJECT_ID":"2022-099AQ","RCS_SIZE":"LARGE","SITE":"AFWTR","MEAN_ANOMALY":"120.8903","MEAN_ELEMENT_THEORY":"SGP4"},{"RA_OF_ASC_NODE":"166.5058","ECCENTRICITY":"0.00009170","APOAPSIS":"563.668","TLE_LINE2":"2 53504  97.6526 166.5058 0000917 230.5979 129.5164 15.01253562 28038","FILE":"3787681","COUNTRY_CODE":"US","OBJECT_NAME":"STARLINK-4448","SEMIMAJOR_AXIS":"6941.167","RCS_SIZE":"LARGE","OBJECT_ID":"2022-099AR","MEAN_ELEMENT_THEORY":"SGP4","SITE":"AFWTR","MEAN_ANOMALY":"129.5164","NORAD_CAT_ID":"53504","MEAN_MOTION_DOT":"0.00006427","CENTER_NAME":"EARTH","LAUNCH_DATE":"2022-08-12","OBJECT_TYPE":"PAYLOAD","REF_FRAME":"TEME","DECAY_DATE":null,"BSTAR":"0.00050461000000","REV_AT_EPOCH":"2803","PERIOD":"95.920","ELEMENT_SET_NO":"999","TIME_SYSTEM":"UTC","GP_ID":"225212388","INCLINATION":"97.6526","CLASSIFICATION_TYPE":"U","ARG_OF_PERICENTER":"230.5979","EPHEMERIS_TYPE":"0","MEAN_MOTION":"15.01253562","PERIAPSIS":"562.395","TLE_LINE1":"1 53504U 22099AR  23043.64774390  .00006427  00000-0  50461-3 0  9999","MEAN_MOTION_DDOT":"0.0000000000000","EPOCH":"2023-02-12T15:32:45.072960"},{"MEAN_ANOMALY":"119.4510","SITE":"AFWTR","MEAN_ELEMENT_THEORY":"SGP4","OBJECT_ID":"2022-099AS","RCS_SIZE":"LARGE","SEMIMAJOR_AXIS":"6941.153","FILE":"3787692","COUNTRY_CODE":"US","OBJECT_NAME":"STARLINK-4446","APOAPSIS":"564.175","TLE_LINE2":"2 53505  97.6520 166.4281 0001668 240.6547 119.4510 15.01258143 27781","ECCENTRICITY":"0.00016680","RA_OF_ASC_NODE":"166.4281","EPOCH":"2023-02-12T13:46:05.804256","MEAN_MOTION_DDOT":"0.0000000000000","TLE_LINE1":"1 53505U 22099AS  23043.57367829  .00002545  00000-0  20264-3 0  9992","MEAN_MOTION":"15.01258143","PERIAPSIS":"561.860","CLASSIFICATION_TYPE":"U","ARG_OF_PERICENTER":"240.6547","EPHEMERIS_TYPE":"0","INCLINATION":"97.6520","GP_ID":"225238552","TIME_SYSTEM":"UTC","ELEMENT_SET_NO":"999","PERIOD":"95.920","BSTAR":"0.00020264000000","REV_AT_EPOCH":"2778","OBJECT_TYPE":"PAYLOAD","DECAY_DATE":null,"REF_FRAME":"TEME","LAUNCH_DATE":"2022-08-12","CENTER_NAME":"EARTH","NORAD_CAT_ID":"53505","MEAN_MOTION_DOT":"0.00002545"},{"INCLINATION":"97.6531","TIME_SYSTEM":"UTC","GP_ID":"225238792","PERIAPSIS":"561.495","MEAN_MOTION":"15.01266445","EPHEMERIS_TYPE":"0","ARG_OF_PERICENTER":"255.6476","CLASSIFICATION_TYPE":"U","TLE_LINE1":"1 53506U 22099AT  23043.57577315  .00001771  00000-0  14240-3 0  9993","EPOCH":"2023-02-12T13:49:06.800160","MEAN_MOTION_DDOT":"0.0000000000000","CENTER_NAME":"EARTH","LAUNCH_DATE":"2022-08-12","MEAN_MOTION_DOT":"0.00001771","NORAD_CAT_ID":"53506","REF_FRAME":"TEME","DECAY_DATE":null,"OBJECT_TYPE":"PAYLOAD","PERIOD":"95.919","REV_AT_EPOCH":"2778","BSTAR":"0.00014240000000","ELEMENT_SET_NO":"999","RCS_SIZE":"LARGE","OBJECT_ID":"2022-099AT","MEAN_ELEMENT_THEORY":"SGP4","MEAN_ANOMALY":"104.4509","SITE":"AFWTR","ECCENTRICITY":"0.00021560","RA_OF_ASC_NODE":"166.4275","COUNTRY_CODE":"US","OBJECT_NAME":"STARLINK-4437","FILE":"3787692","TLE_LINE2":"2 53506  97.6531 166.4275 0002156 255.6476 104.4509 15.01266445 27783","APOAPSIS":"564.488","SEMIMAJOR_AXIS":"6941.127"},{"OBJECT_TYPE":"PAYLOAD","REF_FRAME":"TEME","DECAY_DATE":null,"LAUNCH_DATE":"2022-08-12","CENTER_NAME":"EARTH","MEAN_MOTION_DOT":"0.00002202","NORAD_CAT_ID":"53507","ELEMENT_SET_NO":"999","PERIOD":"95.919","BSTAR":"0.00017595000000","REV_AT_EPOCH":"2778","MEAN_MOTION":"15.01270414","PERIAPSIS":"561.025","CLASSIFICATION_TYPE":"U","ARG_OF_PERICENTER":"263.9235","EPHEMERIS_TYPE":"0","INCLINATION":"97.6538","GP_ID":"225237555","TIME_SYSTEM":"UTC","EPOCH":"2023-02-12T13:43:25.518432","MEAN_MOTION_DDOT":"0.0000000000000","TLE_LINE1":"1 53507U 22099AU  23043.57182313  .00002202  00000-0  17595-3 0  9990","ECCENTRICITY":"0.00028160","RA_OF_ASC_NODE":"166.4283","SEMIMAJOR_AXIS":"6941.115","FILE":"3787692","COUNTRY_CODE":"US","OBJECT_NAME":"STARLINK-4444","APOAPSIS":"564.934","TLE_LINE2":"2 53507  97.6538 166.4283 0002816 263.9235  96.1668 15.01270414 27782","OBJECT_ID":"2022-099AU","RCS_SIZE":"LARGE","SITE":"AFWTR","MEAN_ANOMALY":"96.1668","MEAN_ELEMENT_THEORY":"SGP4"}];
